STARLINK-35764          
1 67109U 25299H   25358.16668980 -.01715057  00000+0 -70041-2 0  9998
2 67109  42.9977 246.6538 0001607 275.2610 236.1326 15.88054656  2535
STARLINK-35781          
1 67110U 25299J   25358.16668980 -.01716969  00000+0 -70084-2 0  9990
2 67110  42.9977 246.6449 0001561 272.6949 242.2290 15.88068548  2592
STARLINK-35875          
1 67111U 25299K   25358.16668980 -.01718102  00000+0 -70171-2 0  9999
2 67111  42.9978 246.6495 0001619 275.4171 237.8053 15.88058335  2531
STARLINK-35906          
1 67112U 25299L   25358.16668980 -.01724485  00000+0 -70384-2 0  9997
2 67112  42.9978 246.6415 0001609 274.5835 241.7717 15.88083614  2539
STARLINK-35789          
1 67113U 25299M   25358.16668980 -.01724287  00000+0 -70337-2 0  9996
2 67113  42.9976 246.6375 0001525 270.0321 247.8545 15.88095443  2530
STARLINK-36180          
1 67114U 25299N   25358.16668980 -.01718858  00000+0 -70084-2 0  9993
2 67114  42.9976 246.6331 0001541 273.2793 246.4213 15.88094162  2645
STARLINK-35892          
1 67115U 25299P   25358.16668980 -.01724231  00000+0 -70285-2 0  9999
2 67115  42.9978 246.6290 0001548 271.0671 250.1878 15.88108766  2533
STARLINK-35738          
1 67116U 25299Q   25358.16668980 -.01718501  00000+0 -70015-2 0  9994
2 67116  42.9977 246.6244 0001508 272.1603 250.9605 15.88109241  2530
STARLINK-35674          
1 67117U 25299R   25358.16668980 -.01714112  00000+0 -69795-2 0  9992
2 67117  42.9979 246.6202 0001535 270.3877 254.4116 15.88112749  2432
STARLINK-35701          
1 67118U 25299S   25358.16668980 -.01718295  00000+0 -69963-2 0  9996
2 67118  42.9978 246.6159 0001552 274.3617 252.1619 15.88120761  2591
STARLINK-36179          
1 67119U 25299T   25358.16668980 -.01707486  00000+0 -69375-2 0  9994
2 67119  42.9976 246.6087 0001521 274.5702 254.6397 15.88143379  2649
STARLINK-36217          
1 67120U 25299U   25358.16668980 -.01714261  00000+0 -69745-2 0  9996
2 67120  42.9979 246.6123 0001535 274.9263 253.0481 15.88128724  2640
