CCSDS_OMM_VERS = 2.0
CREATION_DATE  = 
ORIGINATOR     = 

OBJECT_NAME    = STARLINK-35764
OBJECT_ID      = 2025-299H
CENTER_NAME    = EARTH
REF_FRAME      = TEME
TIME_SYSTEM    = UTC
MEAN_ELEMENT_THEORY = SGP/SGP4

EPOCH          = 2025-12-24T04:00:01.998720
MEAN_MOTION    = 15.88054656
ECCENTRICITY   = .0001607
INCLINATION    = 42.9977
RA_OF_ASC_NODE = 246.6538
ARG_OF_PERICENTER = 275.2610
MEAN_ANOMALY   = 236.1326

EPHEMERIS_TYPE = 0
CLASSIFICATION_TYPE = U
NORAD_CAT_ID   = 67109
ELEMENT_SET_NO = 999
REV_AT_EPOCH   = 253
BSTAR          = -.70041E-2
MEAN_MOTION_DOT = -.1715057E-1
MEAN_MOTION_DDOT = 0

CCSDS_OMM_VERS = 2.0
CREATION_DATE  = 
ORIGINATOR     = 

OBJECT_NAME    = STARLINK-35781
OBJECT_ID      = 2025-299J
CENTER_NAME    = EARTH
REF_FRAME      = TEME
TIME_SYSTEM    = UTC
MEAN_ELEMENT_THEORY = SGP/SGP4

EPOCH          = 2025-12-24T04:00:01.998720
MEAN_MOTION    = 15.88068548
ECCENTRICITY   = .0001561
INCLINATION    = 42.9977
RA_OF_ASC_NODE = 246.6449
ARG_OF_PERICENTER = 272.6949
MEAN_ANOMALY   = 242.2290

EPHEMERIS_TYPE = 0
CLASSIFICATION_TYPE = U
NORAD_CAT_ID   = 67110
ELEMENT_SET_NO = 999
REV_AT_EPOCH   = 259
BSTAR          = -.70084E-2
MEAN_MOTION_DOT = -.1716969E-1
MEAN_MOTION_DDOT = 0

CCSDS_OMM_VERS = 2.0
CREATION_DATE  = 
ORIGINATOR     = 

OBJECT_NAME    = STARLINK-35875
OBJECT_ID      = 2025-299K
CENTER_NAME    = EARTH
REF_FRAME      = TEME
TIME_SYSTEM    = UTC
MEAN_ELEMENT_THEORY = SGP/SGP4

EPOCH          = 2025-12-24T04:00:01.998720
MEAN_MOTION    = 15.88058335
ECCENTRICITY   = .0001619
INCLINATION    = 42.9978
RA_OF_ASC_NODE = 246.6495
ARG_OF_PERICENTER = 275.4171
MEAN_ANOMALY   = 237.8053

EPHEMERIS_TYPE = 0
CLASSIFICATION_TYPE = U
NORAD_CAT_ID   = 67111
ELEMENT_SET_NO = 999
REV_AT_EPOCH   = 253
BSTAR          = -.70171E-2
MEAN_MOTION_DOT = -.1718102E-1
MEAN_MOTION_DDOT = 0

CCSDS_OMM_VERS = 2.0
CREATION_DATE  = 
ORIGINATOR     = 

OBJECT_NAME    = STARLINK-35906
OBJECT_ID      = 2025-299L
CENTER_NAME    = EARTH
REF_FRAME      = TEME
TIME_SYSTEM    = UTC
MEAN_ELEMENT_THEORY = SGP/SGP4

EPOCH          = 2025-12-24T04:00:01.998720
MEAN_MOTION    = 15.88083614
ECCENTRICITY   = .0001609
INCLINATION    = 42.9978
RA_OF_ASC_NODE = 246.6415
ARG_OF_PERICENTER = 274.5835
MEAN_ANOMALY   = 241.7717

EPHEMERIS_TYPE = 0
CLASSIFICATION_TYPE = U
NORAD_CAT_ID   = 67112
ELEMENT_SET_NO = 999
REV_AT_EPOCH   = 253
BSTAR          = -.70384E-2
MEAN_MOTION_DOT = -.1724485E-1
MEAN_MOTION_DDOT = 0

CCSDS_OMM_VERS = 2.0
CREATION_DATE  = 
ORIGINATOR     = 

OBJECT_NAME    = STARLINK-35789
OBJECT_ID      = 2025-299M
CENTER_NAME    = EARTH
REF_FRAME      = TEME
TIME_SYSTEM    = UTC
MEAN_ELEMENT_THEORY = SGP/SGP4

EPOCH          = 2025-12-24T04:00:01.998720
MEAN_MOTION    = 15.88095443
ECCENTRICITY   = .0001525
INCLINATION    = 42.9976
RA_OF_ASC_NODE = 246.6375
ARG_OF_PERICENTER = 270.0321
MEAN_ANOMALY   = 247.8545

EPHEMERIS_TYPE = 0
CLASSIFICATION_TYPE = U
NORAD_CAT_ID   = 67113
ELEMENT_SET_NO = 999
REV_AT_EPOCH   = 253
BSTAR          = -.70337E-2
MEAN_MOTION_DOT = -.1724287E-1
MEAN_MOTION_DDOT = 0

CCSDS_OMM_VERS = 2.0
CREATION_DATE  = 
ORIGINATOR     = 

OBJECT_NAME    = STARLINK-36180
OBJECT_ID      = 2025-299N
CENTER_NAME    = EARTH
REF_FRAME      = TEME
TIME_SYSTEM    = UTC
MEAN_ELEMENT_THEORY = SGP/SGP4

EPOCH          = 2025-12-24T04:00:01.998720
MEAN_MOTION    = 15.88094162
ECCENTRICITY   = .0001541
INCLINATION    = 42.9976
RA_OF_ASC_NODE = 246.6331
ARG_OF_PERICENTER = 273.2793
MEAN_ANOMALY   = 246.4213

EPHEMERIS_TYPE = 0
CLASSIFICATION_TYPE = U
NORAD_CAT_ID   = 67114
ELEMENT_SET_NO = 999
REV_AT_EPOCH   = 264
BSTAR          = -.70084E-2
MEAN_MOTION_DOT = -.1718858E-1
MEAN_MOTION_DDOT = 0

CCSDS_OMM_VERS = 2.0
CREATION_DATE  = 
ORIGINATOR     = 

OBJECT_NAME    = STARLINK-35892
OBJECT_ID      = 2025-299P
CENTER_NAME    = EARTH
REF_FRAME      = TEME
TIME_SYSTEM    = UTC
MEAN_ELEMENT_THEORY = SGP/SGP4

EPOCH          = 2025-12-24T04:00:01.998720
MEAN_MOTION    = 15.88108766
ECCENTRICITY   = .0001548
INCLINATION    = 42.9978
RA_OF_ASC_NODE = 246.6290
ARG_OF_PERICENTER = 271.0671
MEAN_ANOMALY   = 250.1878

EPHEMERIS_TYPE = 0
CLASSIFICATION_TYPE = U
NORAD_CAT_ID   = 67115
ELEMENT_SET_NO = 999
REV_AT_EPOCH   = 253
BSTAR          = -.70285E-2
MEAN_MOTION_DOT = -.1724231E-1
MEAN_MOTION_DDOT = 0

CCSDS_OMM_VERS = 2.0
CREATION_DATE  = 
ORIGINATOR     = 

OBJECT_NAME    = STARLINK-35738
OBJECT_ID      = 2025-299Q
CENTER_NAME    = EARTH
REF_FRAME      = TEME
TIME_SYSTEM    = UTC
MEAN_ELEMENT_THEORY = SGP/SGP4

EPOCH          = 2025-12-24T04:00:01.998720
MEAN_MOTION    = 15.88109241
ECCENTRICITY   = .0001508
INCLINATION    = 42.9977
RA_OF_ASC_NODE = 246.6244
ARG_OF_PERICENTER = 272.1603
MEAN_ANOMALY   = 250.9605

EPHEMERIS_TYPE = 0
CLASSIFICATION_TYPE = U
NORAD_CAT_ID   = 67116
ELEMENT_SET_NO = 999
REV_AT_EPOCH   = 253
BSTAR          = -.70015E-2
MEAN_MOTION_DOT = -.1718501E-1
MEAN_MOTION_DDOT = 0

CCSDS_OMM_VERS = 2.0
CREATION_DATE  = 
ORIGINATOR     = 

OBJECT_NAME    = STARLINK-35674
OBJECT_ID      = 2025-299R
CENTER_NAME    = EARTH
REF_FRAME      = TEME
TIME_SYSTEM    = UTC
MEAN_ELEMENT_THEORY = SGP/SGP4

EPOCH          = 2025-12-24T04:00:01.998720
MEAN_MOTION    = 15.88112749
ECCENTRICITY   = .0001535
INCLINATION    = 42.9979
RA_OF_ASC_NODE = 246.6202
ARG_OF_PERICENTER = 270.3877
MEAN_ANOMALY   = 254.4116

EPHEMERIS_TYPE = 0
CLASSIFICATION_TYPE = U
NORAD_CAT_ID   = 67117
ELEMENT_SET_NO = 999
REV_AT_EPOCH   = 243
BSTAR          = -.69795E-2
MEAN_MOTION_DOT = -.1714112E-1
MEAN_MOTION_DDOT = 0

CCSDS_OMM_VERS = 2.0
CREATION_DATE  = 
ORIGINATOR     = 

OBJECT_NAME    = STARLINK-35701
OBJECT_ID      = 2025-299S
CENTER_NAME    = EARTH
REF_FRAME      = TEME
TIME_SYSTEM    = UTC
MEAN_ELEMENT_THEORY = SGP/SGP4

EPOCH          = 2025-12-24T04:00:01.998720
MEAN_MOTION    = 15.88120761
ECCENTRICITY   = .0001552
INCLINATION    = 42.9978
RA_OF_ASC_NODE = 246.6159
ARG_OF_PERICENTER = 274.3617
MEAN_ANOMALY   = 252.1619

EPHEMERIS_TYPE = 0
CLASSIFICATION_TYPE = U
NORAD_CAT_ID   = 67118
ELEMENT_SET_NO = 999
REV_AT_EPOCH   = 259
BSTAR          = -.69963E-2
MEAN_MOTION_DOT = -.1718295E-1
MEAN_MOTION_DDOT = 0

CCSDS_OMM_VERS = 2.0
CREATION_DATE  = 
ORIGINATOR     = 

OBJECT_NAME    = STARLINK-36179
OBJECT_ID      = 2025-299T
CENTER_NAME    = EARTH
REF_FRAME      = TEME
TIME_SYSTEM    = UTC
MEAN_ELEMENT_THEORY = SGP/SGP4

EPOCH          = 2025-12-24T04:00:01.998720
MEAN_MOTION    = 15.88143379
ECCENTRICITY   = .0001521
INCLINATION    = 42.9976
RA_OF_ASC_NODE = 246.6087
ARG_OF_PERICENTER = 274.5702
MEAN_ANOMALY   = 254.6397

EPHEMERIS_TYPE = 0
CLASSIFICATION_TYPE = U
NORAD_CAT_ID   = 67119
ELEMENT_SET_NO = 999
REV_AT_EPOCH   = 264
BSTAR          = -.69375E-2
MEAN_MOTION_DOT = -.1707486E-1
MEAN_MOTION_DDOT = 0

CCSDS_OMM_VERS = 2.0
CREATION_DATE  = 
ORIGINATOR     = 

OBJECT_NAME    = STARLINK-36217
OBJECT_ID      = 2025-299U
CENTER_NAME    = EARTH
REF_FRAME      = TEME
TIME_SYSTEM    = UTC
MEAN_ELEMENT_THEORY = SGP/SGP4

EPOCH          = 2025-12-24T04:00:01.998720
MEAN_MOTION    = 15.88128724
ECCENTRICITY   = .0001535
INCLINATION    = 42.9979
RA_OF_ASC_NODE = 246.6123
ARG_OF_PERICENTER = 274.9263
MEAN_ANOMALY   = 253.0481

EPHEMERIS_TYPE = 0
CLASSIFICATION_TYPE = U
NORAD_CAT_ID   = 67120
ELEMENT_SET_NO = 999
REV_AT_EPOCH   = 264
BSTAR          = -.69745E-2
MEAN_MOTION_DOT = -.1714261E-1
MEAN_MOTION_DDOT = 0

